{
    "links": {
        "self": "http://www.neowsapp.com/rest/v1/neo/3781878?api_key=iIulBulltgU6a56xZRHN4H3l9WmuAYTsLGpBGhQ2"
    },
    "id": "3781878",
    "neo_reference_id": "3781878",
    "name": "(2017 SR14)",
    "designation": "2017 SR14",
    "nasa_jpl_url": "http://ssd.jpl.nasa.gov/sbdb.cgi?sstr=3781878",
    "absolute_magnitude_h": 24.0,
    "estimated_diameter": {
        "kilometers": {
            "estimated_diameter_min": 0.0421264611,
            "estimated_diameter_max": 0.0941976306
        },
        "meters": {
            "estimated_diameter_min": 42.1264610556,
            "estimated_diameter_max": 94.1976305719
        },
        "miles": {
            "estimated_diameter_min": 0.0261761612,
            "estimated_diameter_max": 0.0585316759
        },
        "feet": {
            "estimated_diameter_min": 138.2101784897,
            "estimated_diameter_max": 309.0473542854
        }
    },
    "is_potentially_hazardous_asteroid": false,
    "close_approach_data": [
        {
            "close_approach_date": "2017-10-01",
            "close_approach_date_full": "2017-Oct-01 19:23",
            "epoch_date_close_approach": 1506885780000,
            "relative_velocity": {
                "kilometers_per_second": "12.734528512",
                "kilometers_per_hour": "45844.3026432281",
                "miles_per_hour": "28485.8668285102"
            },
            "miss_distance": {
                "astronomical": "0.1767488937",
                "lunar": "68.7553196493",
                "kilometers": "26441258.022376419",
                "miles": "16429835.8734918222"
            },
            "orbiting_body": "Earth"
        }
    ],
    "orbital_data": {
        "orbit_id": "3",
        "orbit_determination_date": "2019-07-27 14:00:51",
        "first_observation_date": "2017-09-24",
        "last_observation_date": "2017-09-27",
        "data_arc_in_days": 3,
        "observations_used": 34,
        "orbit_uncertainty": "9",
        "minimum_orbit_intersection": ".165145",
        "jupiter_tisserand_invariant": "4.717",
        "epoch_osculation": "2458021.5",
        "eccentricity": ".1560915619981727",
        "semi_major_axis": "1.370494074465027",
        "inclination": "24.81333685711686",
        "ascending_node_longitude": "187.8134901021382",
        "orbital_period": "586.0223370730231",
        "perihelion_distance": "1.156571513672541",
        "perihelion_argument": "200.93535965",
        "aphelion_distance": "1.584416635257513",
        "perihelion_time": "2458055.621439612360",
        "mean_anomaly": "339.038822441816",
        "mean_motion": ".614311054759575",
        "equinox": "J2000",
        "orbit_class": {
            "orbit_class_type": "AMO",
            "orbit_class_description": "Near-Earth asteroid orbits similar to that of 1221 Amor",
            "orbit_class_range": "1.017 AU < q (perihelion) < 1.3 AU"
        }
    },
    "is_sentry_object": false
}